[{"OBJECT_NAME":"TIANMU-1 22","OBJECT_ID":"2023-208D","EPOCH":"2026-03-09T22:39:05.738688","MEAN_MOTION":15.29457749,"ECCENTRICITY":0.00031332,"INCLINATION":97.4379,"RA_OF_ASC_NODE":184.9419,"ARG_OF_PERICENTER":351.9312,"MEAN_ANOMALY":8.1877,"EPHEMERIS_TYPE":0,"CLASSIFICATION_TYPE":"U","NORAD_CAT_ID":58663,"ELEMENT_SET_NO":999,"REV_AT_EPOCH":12215,"BSTAR":0.00038239675,"MEAN_MOTION_DOT":0.00010851,"MEAN_MOTION_DDOT":0},{"OBJECT_NAME":"STARLINK-36031","OBJECT_ID":"2025-270F","EPOCH":"2026-03-09T23:41:33.495936","MEAN_MOTION":15.27605123,"ECCENTRICITY":4.43e-5,"INCLINATION":43.0003,"RA_OF_ASC_NODE":54.3023,"ARG_OF_PERICENTER":213.5296,"MEAN_ANOMALY":146.5528,"EPHEMERIS_TYPE":0,"CLASSIFICATION_TYPE":"U","NORAD_CAT_ID":66593,"ELEMENT_SET_NO":999,"REV_AT_EPOCH":1775,"BSTAR":0.0011946601,"MEAN_MOTION_DOT":0.00032784,"MEAN_MOTION_DDOT":0}]
